NORAD_CAT_ID,OBJECT_NAME,OBJECT_TYPE,EPOCH,MEAN_MOTION,ECCENTRICITY,INCLINATION,RA_OF_ASC_NODE,ARG_OF_PERICENTER,MEAN_ANOMALY,BSTAR,MEAN_MOTION_DOT,MEAN_MOTION_DDOT,TLE_LINE0,TLE_LINE1,TLE_LINE2,SEMIMAJOR_AXIS,PERIOD,APOGEE,PERIGEE,DECAYED
53933.0,STARLINK-4782,PAYLOAD,2023-11-02 22:10:06,15.08842377,0.0001542,53.2163,194.6415,85.3055,274.8113,7.3787e-05,8.87e-06,0.0,0 STARLINK-4782,1 53933U 22119AZ  23306.92368219  .00000887  00000-0  73787-4 0  9991,2 53933  53.2163 194.6415 0001542  85.3055 274.8113 15.08842377 62473,6917.873,95.437,540.805,538.671,0.0
53933.0,STARLINK-4782,PAYLOAD,2023-11-03 02:56:15,15.08850712,0.0001494,53.2163,193.75,81.4532,278.6629,0.00053126,8.18e-05,0.0,0 STARLINK-4782,1 53933U 22119AZ  23307.12240091  .00008180  00000-0  53126-3 0  9999,2 53933  53.2163 193.7500 0001494  81.4532 278.6629 15.08850712 62084,6917.848,95.437,540.746,538.679,0.0
53933.0,STARLINK-4782,PAYLOAD,2023-11-03 09:17:48,15.08841973,0.0001546,53.2154,192.5583,68.1718,291.9438,0.00029548,4.418e-05,0.0,0 STARLINK-4782,1 53933U 22119AZ  23307.38736459  .00004418  00000-0  29548-3 0  9996,2 53933  53.2154 192.5583 0001546  68.1718 291.9438 15.08841973 62128,6917.874,95.437,540.809,538.67,0.0
53933.0,STARLINK-4782,PAYLOAD,2023-11-03 22:00:53,15.08845694,0.0001678,53.2166,190.1812,92.3591,267.7593,0.00021277,3.1e-05,0.0,0 STARLINK-4782,1 53933U 22119AZ  23307.91728298  .00003100  00000-0  21277-3 0  9995,2 53933  53.2166 190.1812 0001678  92.3591 267.7593 15.08845694 62626,6917.863,95.437,540.889,538.567,0.0
53933.0,STARLINK-4782,PAYLOAD,2023-11-04 09:08:35,15.08845535,0.0001238,53.215,188.1,82.042,278.0713,0.00034834,5.261e-05,0.0,0 STARLINK-4782,1 53933U 22119AZ  23308.38096218  .00005261  00000-0  34834-3 0  9990,2 53933  53.2150 188.1000 0001238  82.0420 278.0713 15.08845535 62694,6917.863,95.437,540.585,538.872,0.0
53933.0,STARLINK-4782,PAYLOAD,2023-11-04 20:16:17,15.08835021,0.0001793,53.2169,186.0205,88.5507,271.569,8.8246e-06,-1.48e-06,0.0,0 STARLINK-4782,1 53933U 22119AZ  23308.84464726 -.00000148  00000-0  88246-5 0  9992,2 53933  53.2169 186.0205 0001793  88.5507 271.5690 15.08835021 62344,6917.896,95.438,541.001,538.52,0.0
53933.0,STARLINK-4782,PAYLOAD,2023-11-04 21:51:40,15.08834106,0.0001455,53.2164,185.7215,81.8276,278.2881,-5.254e-05,-1.124e-05,0.0,0 STARLINK-4782,1 53933U 22119AZ  23308.91088776 -.00001124  00000-0 -52540-4 0  9990,2 53933  53.2164 185.7215 0001455  81.8276 278.2881 15.08834106 62776,6917.898,95.438,540.77,538.757,0.0
53933.0,STARLINK-4782,PAYLOAD,2023-11-05 08:59:22,15.08846161,0.0001299,53.2158,183.6393,89.7476,270.3665,0.00019763,2.859e-05,0.0,0 STARLINK-4782,1 53933U 22119AZ  23309.37456228  .00002859  00000-0  19763-3 0  9995,2 53933  53.2158 183.6393 0001299  89.7476 270.3665 15.08846161 62427,6917.862,95.437,540.625,538.828,0.0
53933.0,STARLINK-4782,PAYLOAD,2023-11-05 21:42:26,15.08868088,0.0001543,53.2162,181.2613,99.9492,260.1675,0.00050967,7.839e-05,0.0,0 STARLINK-4782,1 53933U 22119AZ  23309.90447091  .00007839  00000-0  50967-3 0  9996,2 53933  53.2162 181.2613 0001543  99.9492 260.1675 15.08868088 62929,6917.795,95.436,540.727,538.592,0.0
53933.0,STARLINK-4782,PAYLOAD,2023-11-05 23:17:49,15.08879745,0.0001442,53.2164,180.9642,89.3463,270.7694,0.00072912,0.00011348,0.0,0 STARLINK-4782,1 53933U 22119AZ  23309.97070606  .00011348  00000-0  72912-3 0  9991,2 53933  53.2164 180.9642 0001442  89.3463 270.7694 15.08879745 62513,6917.759,95.435,540.621,538.626,0.0
53933.0,STARLINK-4782,PAYLOAD,2023-11-06 08:50:08,15.08859744,0.000187,53.2172,179.1806,72.9904,287.1293,0.00024258,3.577e-05,0.0,0 STARLINK-4782,1 53933U 22119AZ  23310.36814926  .00003577  00000-0  24258-3 0  9992,2 53933  53.2172 179.1806 0001870  72.9904 287.1293 15.08859744 62577,6917.82,95.436,540.979,538.391,0.0
53933.0,STARLINK-4782,PAYLOAD,2023-11-06 19:57:52,15.0881627,0.0001344,53.2174,177.0983,79.4447,280.6696,-0.00028221,-4.773e-05,0.0,0 STARLINK-4782,1 53933U 22119AZ  23310.83185188 -.00004773  00000-0 -28221-3 0  9990,2 53933  53.2174 177.0983 0001344  79.4447 280.6696 15.08816270 62642,6917.953,95.439,540.748,538.888,0.0
53933.0,STARLINK-4782,PAYLOAD,2023-11-06 21:33:15,15.08792429,0.0001249,53.2159,176.8011,86.602,273.5115,-0.0009947,-0.00016063,0.0,0 STARLINK-4782,1 53933U 22119AZ  23310.89809640 -.00016063  00000-0 -99470-3 0  9991,2 53933  53.2159 176.8011 0001249  86.6020 273.5115 15.08792429 63079,6918.026,95.441,540.755,539.027,0.0
53933.0,STARLINK-4782,PAYLOAD,2023-11-07 00:44:02,15.08791613,0.0001283,53.2165,176.2054,89.5689,270.545,-0.00093103,-0.00015055,0.0,0 STARLINK-4782,1 53933U 22119AZ  23311.03058007 -.00015055  00000-0 -93103-3 0  9998,2 53933  53.2165 176.2054 0001283  89.5689 270.5450 15.08791613 62676,6918.028,95.441,540.781,539.006,0.0
53933.0,STARLINK-4782,PAYLOAD,2023-11-07 08:40:57,15.08804774,0.0001273,53.2167,174.7183,95.5233,264.5904,-0.00048839,-8.045e-05,0.0,0 STARLINK-4782,1 53933U 22119AZ  23311.36178202 -.00008045  00000-0 -48839-3 0  9991,2 53933  53.2167 174.7183 0001273  95.5233 264.5904 15.08804774 62721,6917.988,95.44,540.734,538.972,0.0
53933.0,STARLINK-4782,PAYLOAD,2023-11-07 19:48:40,15.08814024,8.75e-05,53.2165,172.6385,85.3699,274.7393,-0.00012268,-2.238e-05,0.0,0 STARLINK-4782,1 53933U 22119AZ  23311.82546696 -.00002238  00000-0 -12268-3 0  9993,2 53933  53.2165 172.6385 0000875  85.3699 274.7393 15.08814024 62791,6917.96,95.439,540.43,539.219,0.0
53933.0,STARLINK-4782,PAYLOAD,2023-11-08 00:34:49,15.08829514,0.000124,53.2164,171.7464,93.5839,266.5295,0.00017323,2.469e-05,0.0,0 STARLINK-4782,1 53933U 22119AZ  23312.02418440  .00002469  00000-0  17323-3 0  9992,2 53933  53.2164 171.7464 0001240  93.5839 266.5295 15.08829514 62826,6917.912,95.438,540.635,538.92,0.0
53933.0,STARLINK-4782,PAYLOAD,2023-11-08 21:14:48,15.08895498,0.0001489,53.2166,167.8804,97.7119,262.4043,0.0013291,0.0002096,0.0,0 STARLINK-4782,1 53933U 22119AZ  23312.88527880  .00020960  00000-0  13291-2 0  9990,2 53933  53.2166 167.8804 0001489  97.7119 262.4043 15.08895498 63375,6917.711,95.434,540.606,538.546,0.0
53933.0,STARLINK-4782,PAYLOAD,2023-11-09 00:25:37,15.08828202,0.0001227,53.2166,167.2861,93.6741,266.4392,0.00074688,0.00011615,0.0,0 STARLINK-4782,1 53933U 22119AZ  23313.01779199  .00011615  00000-0  74688-3 0  9993,2 53933  53.2166 167.2861 0001227  93.6741 266.4392 15.08828202 63390,6917.916,95.438,540.63,538.933,0.0
53933.0,STARLINK-4782,PAYLOAD,2023-11-09 19:30:13,15.08853217,0.0001343,53.2167,163.7182,126.8382,233.2734,0.00036557,5.537e-05,0.0,0 STARLINK-4782,1 53933U 22119AZ  23313.81265709  .00005537  00000-0  36557-3 0  9997,2 53933  53.2167 163.7182 0001343 126.8382 233.2734 15.08853217 63090,6917.84,95.437,540.634,538.776,0.0
53933.0,STARLINK-4782,PAYLOAD,2023-11-09 21:05:36,15.08864234,0.0001155,53.2163,163.42,110.7937,249.3179,0.0008494,0.00013265,0.0,0 STARLINK-4782,1 53933U 22119AZ  23313.87889168  .00013265  00000-0  84940-3 0  9990,2 53933  53.2163 163.4200 0001155 110.7937 249.3179 15.08864234 63523,6917.806,95.436,540.47,538.872,0.0
53933.0,STARLINK-4782,PAYLOAD,2023-11-10 06:37:55,15.08851381,0.0001221,53.2162,161.6366,101.9023,258.2106,0.0001413,1.962e-05,0.0,0 STARLINK-4782,1 53933U 22119AZ  23314.27633523  .00001962  00000-0  14130-3 0  9992,2 53933  53.2162 161.6366 0001221 101.9023 258.2106 15.08851381 63165,6917.846,95.437,540.555,538.866,0.0
53933.0,STARLINK-4782,PAYLOAD,2023-11-10 19:21:00,15.08847682,0.0001235,53.2158,159.2565,93.7078,266.4056,-0.00014821,-2.646e-05,0.0,0 STARLINK-4782,1 53933U 22119AZ  23314.80625253 -.00002646  00000-0 -14821-3 0  9991,2 53933  53.2158 159.2565 0001235  93.7078 266.4056 15.08847682 63666,6917.857,95.437,540.576,538.868,0.0
53933.0,STARLINK-4782,PAYLOAD,2023-11-10 20:56:23,15.0884886,0.0001249,53.2158,158.9593,94.1056,266.0079,-0.00012843,-2.332e-05,0.0,0 STARLINK-4782,1 53933U 22119AZ  23314.87249118 -.00002332  00000-0 -12843-3 0  9994,2 53933  53.2158 158.9593 0001249  94.1056 266.0079 15.08848860 63254,6917.853,95.437,540.582,538.854,0.0
53933.0,STARLINK-4782,PAYLOAD,2023-11-11 19:11:47,15.08844625,0.0001199,53.2166,154.7958,99.5226,260.5902,-8.7666e-06,-4.27e-06,0.0,0 STARLINK-4782,1 53933U 22119AZ  23315.79985782 -.00000427  00000-0 -87666-5 0  9990,2 53933  53.2166 154.7958 0001199  99.5226 260.5902 15.08844625 63398,6917.866,95.437,540.561,538.902,0.0
53933.0,STARLINK-4782,PAYLOAD,2023-11-11 20:47:10,15.08843899,0.00012,53.2165,154.4988,100.5447,259.5681,-1.4248e-05,-5.15e-06,0.0,0 STARLINK-4782,1 53933U 22119AZ  23315.86609741 -.00000515  00000-0 -14248-4 0  9999,2 53933  53.2165 154.4988 0001200 100.5447 259.5681 15.08843899 63820,6917.868,95.437,540.564,538.903,0.0
53933.0,STARLINK-4782,PAYLOAD,2023-11-12 06:19:30,15.08836604,0.0001199,53.2167,152.7143,96.4671,263.6457,-1.6932e-05,-5.57e-06,0.0,0 STARLINK-4782,1 53933U 22119AZ  23316.26354265 -.00000557  00000-0 -16932-4 0  9990,2 53933  53.2167 152.7143 0001199  96.4671 263.6457 15.08836604 63468,6917.891,95.438,540.585,538.926,0.0
53933.0,STARLINK-4782,PAYLOAD,2023-11-12 20:37:58,15.08837897,0.0001247,53.2167,150.0379,92.7342,267.3793,5.6036e-05,6.04e-06,0.0,0 STARLINK-4782,1 53933U 22119AZ  23316.85970164  .00000604  00000-0  56036-4 0  9997,2 53933  53.2167 150.0379 0001247  92.7342 267.3793 15.08837897 63973,6917.887,95.438,540.614,538.889,0.0
53933.0,STARLINK-4782,PAYLOAD,2023-11-13 06:10:16,15.08841735,0.000126,53.2169,148.2533,89.4666,270.647,0.00011599,1.559e-05,0.0,0 STARLINK-4782,1 53933U 22119AZ  23317.25713854  .00001559  00000-0  11599-3 0  9997,2 53933  53.2169 148.2533 0001260  89.4666 270.6470 15.08841735 63619,6917.875,95.437,540.612,538.868,0.0
53933.0,STARLINK-4782,PAYLOAD,2023-11-13 22:04:07,15.08848858,0.0001267,53.2167,145.2796,88.859,271.2548,0.00016599,2.355e-05,0.0,0 STARLINK-4782,1 53933U 22119AZ  23317.91953232  .00002355  00000-0  16599-3 0  9996,2 53933  53.2167 145.2796 0001267  88.8590 271.2548 15.08848858 64135,6917.853,95.437,540.595,538.842,0.0
